{
  "user": [
    {
      "id": 1,
      "name": "User 1",
      "status": 2
    }
  ],
  "ticket": [
    {
      "id": 1,
      "description": "Lorem ipsum dolor sit amet, consectetur adipiscing elit. Mauris tempus ligula quis sapien ullamcorper viverra.",
      "assignee": 1,
      "type": 2,
      "status": 3
    },
    {
      "id": 2,
      "description": "Lorem ipsum dolor sit amet, consectetur adipiscing elit. Mauris tempus ligula quis sapien ullamcorper viverra.",
      "assignee": 1,
      "type": 1,
      "status": 1
    },
    {
      "id": 3,
      "description": "Lorem ipsum dolor sit amet, consectetur adipiscing elit. Mauris tempus ligula quis sapien ullamcorper viverra.",
      "assignee": 1,
      "type": 1,
      "status": 1
    },
    {
      "id": 4,
      "description": "Lorem ipsum dolor sit amet, consectetur adipiscing elit. Mauris tempus ligula quis sapien ullamcorper viverra.",
      "assignee": 1,
      "type": 1,
      "status": 2
    },
    {
      "id": 5,
      "description": "Lorem ipsum dolor sit amet, consectetur adipiscing elit. Mauris tempus ligula quis sapien ullamcorper viverra.",
      "assignee": 1,
      "type": 2,
      "status": 2
    },
    {
      "id": 6,
      "description": "Lorem ipsum dolor sit amet, consectetur adipiscing elit. Mauris tempus ligula quis sapien ullamcorper viverra.",
      "assignee": 1,
      "type": 2,
      "status": 3
    },
    {
      "id": 7,
      "description": "Lorem ipsum dolor sit amet, consectetur adipiscing elit. Mauris tempus ligula quis sapien ullamcorper viverra.",
      "assignee": 1,
      "type": 1,
      "status": 1
    }
  ],
  "type": [
    {
      "id": 1,
      "name": "Task",
      "friendlyName": "Task"
    },
    {
      "id": 2,
      "name": "Bug",
      "friendlyName": "Bug"
    }
  ],
  "status": [
    {
      "id": 1,
      "name": "Completed",
      "friendlyName": "Completed"
    },
    {
      "id": 2,
      "name": "InProgress",
      "friendlyName": "In Progress"
    },
    {
      "id": 3,
      "name": "NotStarted",
      "friendlyName": "Not Started"
    }
  ],
  "area": [
    {
      "area_code": "101",
      "name": "Bandra"
    },
    {
      "area_code": "102",
      "name": "Santacruz"
    },
    {
      "area_code": "103",
      "name": "Andheri"
    },
    {
      "area_code": "104",
      "name": "Jogeshwari"
    },
    {
      "area_code": "105",
      "name": "Goregaon"
    },
    {
      "area_code": "106",
      "name": "Kandivli"
    },
    {
      "area_code": "107",
      "name": "Malad"
    },
    {
      "area_code": "108",
      "name": "Borivli"
    },
    {
      "area_code": "109",
      "name": "Dahisar"
    },
    {
      "area_code": "110",
      "name": "Mira Road"
    },
    {
      "area_code": "111",
      "name": "Bhayendar"
    },
    {
      "area_code": "112",
      "name": "Vasai"
    },
    {
      "area_code": "113",
      "name": "Nalasopara"
    },
    {
      "area_code": "114",
      "name": "Virar"
    }
  ]
}
